[{"OBJECT_NAME":"STARLINK-30494","OBJECT_ID":"2023-151G","EPOCH":"2026-03-09T08:39:06.366240","MEAN_MOTION":15.28417441,"ECCENTRICITY":0.00011553,"INCLINATION":43.0027,"RA_OF_ASC_NODE":192.4566,"ARG_OF_PERICENTER":241.5536,"MEAN_ANOMALY":118.52,"EPHEMERIS_TYPE":0,"CLASSIFICATION_TYPE":"U","NORAD_CAT_ID":57970,"ELEMENT_SET_NO":999,"REV_AT_EPOCH":13740,"BSTAR":-3.569111e-5,"MEAN_MOTION_DOT":-1.272e-5,"MEAN_MOTION_DDOT":0},{"OBJECT_NAME":"STARLINK-36487","OBJECT_ID":"2026-005N","EPOCH":"2026-03-09T21:20:04.180128","MEAN_MOTION":15.27776317,"ECCENTRICITY":0.00037754,"INCLINATION":42.998,"RA_OF_ASC_NODE":237.1463,"ARG_OF_PERICENTER":297.1589,"MEAN_ANOMALY":62.8878,"EPHEMERIS_TYPE":0,"CLASSIFICATION_TYPE":"U","NORAD_CAT_ID":67416,"ELEMENT_SET_NO":999,"REV_AT_EPOCH":872,"BSTAR":-0.0089087085,"MEAN_MOTION_DOT":-0.0023917,"MEAN_MOTION_DDOT":0}]
